{"type": "FeatureCollection", "features": [ {"type": "Feature", "properties": {"norad_id": 44804, "name": "CARTOSAT-3", "group": "resource", "lat": -24.36885497481746, "lon": -128.7607366943292, "alt_km": 521.9707670696844, "timestamp": "2025-12-21T03:56:50.512272+00:00", "meta": {"OBJECT_NAME": "CARTOSAT-3", "OBJECT_ID": "2019-081A", "EPOCH": "2025-12-20T20:43:40.477152", "MEAN_MOTION": 15.19209811, "ECCENTRICITY": 0.0013908, "INCLINATION": 97.4576, "RA_OF_ASC_NODE": 54.3439, "ARG_OF_PERICENTER": 57.6042, "MEAN_ANOMALY": 302.6536, "EPHEMERIS_TYPE": 0, "CLASSIFICATION_TYPE": "U", "NORAD_CAT_ID": 44804, "ELEMENT_SET_NO": 999, "REV_AT_EPOCH": 33639, "BSTAR": 4.2233e-05, "MEAN_MOTION_DOT": 8.22e-06, "MEAN_MOTION_DDOT": 0}, "tle": {"line1": "1 44804U 19081A   25354.86366293  .00000822  00000+0  42233-4 0  9990", "line2": "2 44804  97.4576  54.3439 0013908  57.6042 302.6536 15.19209811336399"}}, "geometry": {"type": "Point", "coordinates": [-128.7607366943292, -24.36885497481746]}}, {"type": "Feature", "properties": {"norad_id": 44819, "name": "GAOFEN-12 01", "group": "resource", "lat": -41.209955420030504, "lon": 174.3186116400127, "alt_km": 632.6798503634946, "timestamp": "2025-12-21T03:56:50.512282+00:00", "meta": {"OBJECT_NAME": "GAOFEN-12 01", "OBJECT_ID": "2019-082A", "EPOCH": "2025-12-20T20:27:43.598016", "MEAN_MOTION": 14.80665923, "ECCENTRICITY": 0.0001853, "INCLINATION": 97.8124, "RA_OF_ASC_NODE": 0.9206, "ARG_OF_PERICENTER": 193.6104, "MEAN_ANOMALY": 166.5059, "EPHEMERIS_TYPE": 0, "CLASSIFICATION_TYPE": "U", "NORAD_CAT_ID": 44819, "ELEMENT_SET_NO": 999, "REV_AT_EPOCH": 32770, "BSTAR": 4.7947e-05, "MEAN_MOTION_DOT": 3.18e-06, "MEAN_MOTION_DDOT": 0}, "tle": {"line1": "1 44819U 19082A   25354.85258794  .00000318  00000+0  47947-4 0  9999", "line2": "2 44819  97.8124   0.9206 0001853 193.6104 166.5059 14.80665923327702"}}, "geometry": {"type": "Point", "coordinates": [174.3186116400127, -41.209955420030504]}}, {"type": "Feature", "properties": {"norad_id": 44873, "name": "CSG-1", "group": "resource", "lat": 17.424637627281474, "lon": 173.8701316209184, "alt_km": 622.6493331039819, "timestamp": "2025-12-21T03:56:50.512290+00:00", "meta": {"OBJECT_NAME": "CSG-1", "OBJECT_ID": "2019-092A", "EPOCH": "2025-12-20T19:46:00.930432", "MEAN_MOTION": 14.82150125, "ECCENTRICITY": 0.0001474, "INCLINATION": 97.8803, "RA_OF_ASC_NODE": 176.026, "ARG_OF_PERICENTER": 86.1231, "MEAN_ANOMALY": 274.015, "EPHEMERIS_TYPE": 0, "CLASSIFICATION_TYPE": "U", "NORAD_CAT_ID": 44873, "ELEMENT_SET_NO": 999, "REV_AT_EPOCH": 32505, "BSTAR": 5.4544e-05, "MEAN_MOTION_DOT": 3.82e-06, "MEAN_MOTION_DDOT": 0}, "tle": {"line1": "1 44873U 19092A   25354.82362188  .00000382  00000+0  54544-4 0  9992", "line2": "2 44873  97.8803 176.0260 0001474  86.1231 274.0150 14.82150125325055"}}, "geometry": {"type": "Point", "coordinates": [173.8701316209184, 17.424637627281474]}}, {"type": "Feature", "properties": {"norad_id": 46277, "name": "NEMO-HD", "group": "resource", "lat": 39.10733768128269, "lon": -119.9290946675107, "alt_km": 441.7993171333774, "timestamp": "2025-12-21T03:56:50.512299+00:00", "meta": {"OBJECT_NAME": "NEMO-HD", "OBJECT_ID": "2020-061F", "EPOCH": "2025-12-20T19:32:42.151200", "MEAN_MOTION": 15.40480446, "ECCENTRICITY": 0.0001367, "INCLINATION": 97.2201, "RA_OF_ASC_NODE": 53.8101, "ARG_OF_PERICENTER": 51.6658, "MEAN_ANOMALY": 308.4711, "EPHEMERIS_TYPE": 0, "CLASSIFICATION_TYPE": "U", "NORAD_CAT_ID": 46277, "ELEMENT_SET_NO": 999, "REV_AT_EPOCH": 29448, "BSTAR": 0.0001718, "MEAN_MOTION_DOT": 6.88e-05, "MEAN_MOTION_DDOT": 0}, "tle": {"line1": "1 46277U 20061F   25354.81437675  .00006880  00000+0  17180-3 0  9996", "line2": "2 46277  97.2201  53.8101 0001367  51.6658 308.4711 15.40480446294482"}}, "geometry": {"type": "Point", "coordinates": [-119.9290946675107, 39.10733768128269]}}, {"type": "Feature", "properties": {"norad_id": 46984, "name": "SENTINEL-6A", "group": "resource", "lat": 55.719057751755116, "lon": -174.47501747471986, "alt_km": 1336.9360747719838, "timestamp": "2025-12-21T03:56:50.512309+00:00", "meta": {"OBJECT_NAME": "SENTINEL-6A", "OBJECT_ID": "2020-086A", "EPOCH": "2025-12-20T16:22:03.275904", "MEAN_MOTION": 12.80930831, "ECCENTRICITY": 0.0007713, "INCLINATION": 66.0394, "RA_OF_ASC_NODE": 145.8116, "ARG_OF_PERICENTER": 269.3177, "MEAN_ANOMALY": 90.6954, "EPHEMERIS_TYPE": 0, "CLASSIFICATION_TYPE": "U", "NORAD_CAT_ID": 46984, "ELEMENT_SET_NO": 999, "REV_AT_EPOCH": 23746, "BSTAR": -3.5494e-05, "MEAN_MOTION_DOT": -6.9e-07, "MEAN_MOTION_DDOT": 0}, "tle": {"line1": "1 46984U 20086A   25354.68198236 -.00000069  00000+0 -35494-4 0  9994", "line2": "2 46984  66.0394 145.8116 0007713 269.3177  90.6954 12.80930831237460"}}, "geometry": {"type": "Point", "coordinates": [-174.47501747471986, 55.719057751755116]}}, {"type": "Feature", "properties": {"norad_id": 48079, "name": "GAOFEN-12 02", "group": "resource", "lat": -52.882597302302976, "lon": 158.4404183769456, "alt_km": 636.3350985937168, "timestamp": "2025-12-21T03:56:50.512317+00:00", "meta": {"OBJECT_NAME": "GAOFEN-12 02", "OBJECT_ID": "2021-026A", "EPOCH": "2025-12-20T22:01:49.502784", "MEAN_MOTION": 14.80683815, "ECCENTRICITY": 0.0003602, "INCLINATION": 97.9854, "RA_OF_ASC_NODE": 348.8849, "ARG_OF_PERICENTER": 84.7451, "MEAN_ANOMALY": 275.4172, "EPHEMERIS_TYPE": 0, "CLASSIFICATION_TYPE": "U", "NORAD_CAT_ID": 48079, "ELEMENT_SET_NO": 999, "REV_AT_EPOCH": 25538, "BSTAR": 4.8322e-05, "MEAN_MOTION_DOT": 3.19e-06, "MEAN_MOTION_DDOT": 0}, "tle": {"line1": "1 48079U 21026A   25354.91793406  .00000319  00000+0  48322-4 0  9992", "line2": "2 48079  97.9854 348.8849 0003602  84.7451 275.4172 14.80683815255381"}}, "geometry": {"type": "Point", "coordinates": [158.4404183769456, -52.882597302302976]}}, {"type": "Feature", "properties": {"norad_id": 48268, "name": "PLEIADES NEO 3", "group": "resource", "lat": -29.31761593109707, "lon": 71.95434995636253, "alt_km": 630.449336907498, "timestamp": "2025-12-21T03:56:50.512326+00:00", "meta": {"OBJECT_NAME": "PLEIADES NEO 3", "OBJECT_ID": "2021-034A", "EPOCH": "2025-12-20T19:58:36.873408", "MEAN_MOTION": 14.81673238, "ECCENTRICITY": 0.0001362, "INCLINATION": 97.8951, "RA_OF_ASC_NODE": 67.1575, "ARG_OF_PERICENTER": 90.9064, "MEAN_ANOMALY": 269.2305, "EPHEMERIS_TYPE": 0, "CLASSIFICATION_TYPE": "U", "NORAD_CAT_ID": 48268, "ELEMENT_SET_NO": 999, "REV_AT_EPOCH": 25124, "BSTAR": 5.4673e-05, "MEAN_MOTION_DOT": 3.78e-06, "MEAN_MOTION_DDOT": 0}, "tle": {"line1": "1 48268U 21034A   25354.83237122  .00000378  00000+0  54673-4 0  9991", "line2": "2 48268  97.8951  67.1575 0001362  90.9064 269.2305 14.81673238251244"}}, "geometry": {"type": "Point", "coordinates": [71.95434995636253, -29.31761593109707]}}, {"type": "Feature", "properties": {"norad_id": 49070, "name": "PLEIADES NEO 4", "group": "resource", "lat": 29.01976482928105, "lon": -108.10377196419012, "alt_km": 622.2681040972138, "timestamp": "2025-12-21T03:56:50.512335+00:00", "meta": {"OBJECT_NAME": "PLEIADES NEO 4", "OBJECT_ID": "2021-073E", "EPOCH": "2025-12-20T17:32:43.596096", "MEAN_MOTION": 14.81672155, "ECCENTRICITY": 0.0001318, "INCLINATION": 97.8951, "RA_OF_ASC_NODE": 67.0539, "ARG_OF_PERICENTER": 90.4145, "MEAN_ANOMALY": 269.7219, "EPHEMERIS_TYPE": 0, "CLASSIFICATION_TYPE": "U", "NORAD_CAT_ID": 49070, "ELEMENT_SET_NO": 999, "REV_AT_EPOCH": 23494, "BSTAR": -3.8173e-05, "MEAN_MOTION_DOT": -3.52e-06, "MEAN_MOTION_DDOT": 0}, "tle": {"line1": "1 49070U 21073E   25354.73106014 -.00000352  00000+0 -38173-4 0  9991", "line2": "2 49070  97.8951  67.0539 0001318  90.4145 269.7219 14.81672155234945"}}, "geometry": {"type": "Point", "coordinates": [-108.10377196419012, 29.01976482928105]}}, {"type": "Feature", "properties": {"norad_id": 49260, "name": "LANDSAT 9", "group": "resource", "lat": 36.15273550966193, "lon": -110.79313573905127, "alt_km": 699.5513125053376, "timestamp": "2025-12-21T03:56:50.512344+00:00", "meta": {"OBJECT_NAME": "LANDSAT 9", "OBJECT_ID": "2021-088A", "EPOCH": "2025-12-20T19:03:05.444064", "MEAN_MOTION": 14.57105481, "ECCENTRICITY": 0.0001104, "INCLINATION": 98.2084, "RA_OF_ASC_NODE": 62.7878, "ARG_OF_PERICENTER": 91.462, "MEAN_ANOMALY": 268.6705, "EPHEMERIS_TYPE": 0, "CLASSIFICATION_TYPE": "U", "NORAD_CAT_ID": 49260, "ELEMENT_SET_NO": 999, "REV_AT_EPOCH": 22502, "BSTAR": 7.6271e-05, "MEAN_MOTION_DOT": 2.98e-06, "MEAN_MOTION_DDOT": 0}, "tle": {"line1": "1 49260U 21088A   25354.79381301  .00000298  00000+0  76271-4 0  9996", "line2": "2 49260  98.2084  62.7878 0001104  91.4620 268.6705 14.57105481225021"}}, "geometry": {"type": "Point", "coordinates": [-110.79313573905127, 36.15273550966193]}}, {"type": "Feature", "properties": {"norad_id": 51444, "name": "CSG-2", "group": "resource", "lat": -17.69489369331863, "lon": -6.172445232198402, "alt_km": 627.9782864412227, "timestamp": "2025-12-21T03:56:50.512353+00:00", "meta": {"OBJECT_NAME": "CSG-2", "OBJECT_ID": "2022-008A", "EPOCH": "2025-12-20T20:34:37.214688", "MEAN_MOTION": 14.82150769, "ECCENTRICITY": 0.0001439, "INCLINATION": 97.8797, "RA_OF_ASC_NODE": 176.0577, "ARG_OF_PERICENTER": 83.7078, "MEAN_ANOMALY": 276.4299, "EPHEMERIS_TYPE": 0, "CLASSIFICATION_TYPE": "U", "NORAD_CAT_ID": 51444, "ELEMENT_SET_NO": 999, "REV_AT_EPOCH": 21017, "BSTAR": 5.1173e-05, "MEAN_MOTION_DOT": 3.55e-06, "MEAN_MOTION_DDOT": 0}, "tle": {"line1": "1 51444U 22008A   25354.85737517  .00000355  00000+0  51173-4 0  9995", "line2": "2 51444  97.8797 176.0577 0001439  83.7078 276.4299 14.82150769210173"}}, "geometry": {"type": "Point", "coordinates": [-6.172445232198402, -17.69489369331863]}}]}